,City,Country,Lat,Lng,Hotel Name
0,punta arenas,PH,8.99,125.34,
1,upernavik,GL,72.79,-56.15,Café de Upernavik
2,mataura,NZ,-46.19,168.86,Ellie's Villa
3,lichinga,MZ,-13.31,35.24,Girassol Lichinga
4,saskylakh,RU,71.92,114.08,
5,severo-kurilsk,RU,50.68,156.12,Kak Doma
6,sobolevo,RU,54.43,31.9,
7,yellowknife,CA,62.46,-114.35,The Explorer Hotel
8,rikitea,PF,-23.12,-134.97,Pension Maro'i
9,lohja,FI,60.25,24.07,Place to Sleep Hotel Lohja
10,beloha,MG,-25.17,45.05,
11,albany,US,42.6,-73.97,
12,bethel,US,41.37,-73.41,Best Western Danbury/Bethel
13,denpasar,ID,-8.65,115.22,The Tukad Villa
14,dikson,RU,73.51,80.55,
15,tecpan,GT,14.76,-90.99,Raqui Lodge
16,sinegorye,RU,62.08,150.48,
17,longyearbyen,SJ,78.22,15.64,"Radisson Blu Polar Hotel, Spitsbergen"
18,lebu,CL,-37.62,-73.65,Hostal Las Lilas
19,maldonado,UY,-34.67,-54.92,
20,laguna de perlas,US,38.42,-121.42,Hilton Garden Inn Sacramento Elk Grove
21,ugoofaaru,MV,5.67,73.0,Ungoofaaru Inn
22,saint-philippe,RE,-21.36,55.77,Pinpin d'Amour
23,auriflama,BR,-20.69,-50.55,Capoia´s Hotel
24,margate,GB,51.38,1.39,Sands Hotel Margate
25,bengkulu,ID,-3.8,102.27,Mercure Bengkulu
26,port alfred,CD,-7.03,29.76,
27,kavieng,PG,-2.57,150.8,Nusa Island Retreat
28,muisne,EC,0.6,-80.03,Quinta Samay
29,hermanus,ZA,-34.42,19.23,Birkenhead House
30,roswell,US,34.02,-84.36,Wingate by Wyndham Alpharetta
31,broome,US,42.25,-75.83,
32,dancheng,CN,33.63,115.18,Sunshine Hotel
33,ulagan,RU,50.63,87.96,Gostinitsa Uyut
34,busselton,AU,-33.65,115.33,Broadwater Resort
35,kodiak,US,57.79,-152.41,Shelikof Lodge
36,barrow,US,71.29,-156.79,Top of the World Hotel
37,hilo,US,19.73,-155.09,Grand Naniloa Hotel Hilo - a DoubleTree by Hilton
38,castro,BR,-24.79,-50.01,Hotel Buganville Express
39,khanewal,PK,30.3,71.93,City Gate Hotel and Restaurant
40,hithadhoo,MV,-0.6,73.08,Pebbles Inn
41,oranjemund,,-28.55,16.43,
42,tungor,RU,53.38,142.96,
43,koster,ZA,-25.86,26.9,Bem-Vindo Lodge
44,arraial do cabo,BR,-22.84,-46.65,
45,villa maria,IT,46.2,10.13,Hostel Castle Tirano / BB
46,bredasdorp,ZA,-34.53,20.04,Bredasdorp Country Manor
47,coihaique,CL,-45.58,-72.07,Nomades Hotel Boutique
48,provideniya,RU,64.38,-173.3,
49,souillac,MU,-20.52,57.52,Auberge de Saint-Aubin
50,trairi,BR,-3.28,-39.27,Rede Beach: Hotel em Guajiru
51,bluff,NZ,-46.6,168.33,Land's End Boutique Hotel
52,new norfolk,LR,6.65,-10.59,
53,sitka,US,57.05,-135.33,Aspen Suites Hotel Sitka
54,codrington,AU,-38.27,141.97,Codrington Gardens Bed And Breakfast
55,ipora,BR,-16.44,-51.12,Grand Hotel
56,hasaki,JP,35.73,140.83,Inubosaki Kanko Hotel
57,norilsk,RU,69.35,88.2,Hostels Rus - Norilsk
58,altamira,BR,-3.2,-52.21,Xingu Praia Hotel
59,thompson,CA,55.74,-97.86,Burntwood Hotel
60,hobart,AU,-42.88,147.33,Hotel Grand Chancellor Hobart
61,mahebourg,MU,-20.41,57.7,Preskil Island Resort
62,manado,ID,1.49,124.85,Four Points by Sheraton Manado
63,carnarvon,AU,-24.87,113.63,Hospitality Carnarvon
64,atuona,PF,-9.8,-139.03,Hôtel Hiva Oa Hanakee Lodge
65,katsuura,JP,35.13,140.3,Katsuura Hilltop Hotel & Residence
66,ilulissat,GL,69.22,-51.1,Hotel Icefiord
67,matadi,CD,-5.82,13.45,Hotel Vivi Palace
68,mandalgovi,MN,45.76,106.27,Mandal Hotel
69,ushuaia,AR,-54.8,-68.3,Los Cauquenes Resort & Spa
70,esperance,AU,-33.87,121.9,The Jetty Resort
71,kuryk,KZ,43.2,51.65,Gostinitsa Kuryk - Otel' Dlya Vsekh Kategoriy Kliyentov .
72,hirna,ET,9.22,41.1,Rozalago Hotel
73,kargat,RU,55.2,80.28,Kargat
74,kruisfontein,ZA,-34.0,24.73,
75,morondava,MG,-20.28,44.28,Palissandre Cote Ouest resort & SPA
76,saint-leu,RE,-21.15,55.28,Blue Margouillat
77,aklavik,CA,68.22,-135.01,Sundog Inn
78,vaini,TO,-21.2,-175.2,Paradise First Hotel
79,pevek,RU,69.7,170.31,Munitsipal'naya Gostinitsa
80,san patricio,ML,13.3,-4.9,Hôtel Teriya
81,qaanaaq,GL,77.48,-69.36,Qaanaaq Hotel
82,cape town,CL,-36.41,-71.9,Hotel Molino Viejo
83,pahrump,US,36.21,-115.98,Holiday Inn Express & Suites Pahrump
84,ribeira grande,ES,42.75,-8.44,Hotel Restaurante América
85,gijon,ES,43.54,-5.66,abba Playa Gijón Hotel
86,davod,HU,45.99,18.92,Locomotiv Vendégház
87,bambous virieux,MU,-20.26,57.41,Pearle Beach Resort & Spa
88,puerto ayora,ES,36.59,-6.23,Duques de Medinaceli
89,tevaitoa,PF,-16.78,-151.5,Hôtel Raiatea Lodge
90,faanui,PF,-16.48,-151.75,Oa Oa Lodge
91,flin flon,FR,48.5,6.66,
92,finnsnes,NO,69.23,17.98,Finnsnes Hotel - A SNR Hotel
93,victoria,HK,22.29,114.16,"Dorsett Mongkok, Hong Kong"
94,marsh harbour,GB,53.65,-1.81,Pennine Manor
95,oktyabrskoye,RU,43.06,44.74,Aleksandrovskiy
96,sao joao da barra,IN,20.51,76.21,Hotel Sai Residency
97,bambanglipuro,ID,-7.95,110.28,Puri Brata
98,ozernovskiy,RU,51.5,156.52,
99,kavaratti,IN,10.57,72.64,Bismillah Hotel And Lodging
100,jamestown,US,42.1,-79.24,Chautauqua Harbor Hotel
101,sao filipe,IN,20.51,76.21,Hotel Sai Residency
102,ilebo,CD,-4.32,20.58,
103,dongsheng,CN,39.82,109.98,Crowne Plaza Ordos
104,savinka,RU,50.08,47.1,
105,raudeberg,NO,61.99,5.14,Ulvesund FYR
106,biak,ID,-0.91,122.88,
107,moroni,KM,-11.7,43.26,Golden Tulip Grande Comore Moroni Resort & Spa
108,alofi,NU,-19.06,-169.92,Taloa Heights
109,portland,US,45.52,-122.68,Jupiter Hotel Portland
110,pisco,PE,-13.7,-76.22,Embassy Beach
111,cherskiy,RU,68.75,161.3,
112,bathsheba,BB,13.22,-59.52,Rest Haven Beach Cottages
113,butaritari,KI,3.07,172.79,
114,onega,RU,63.91,38.14,"Gostevoy Dom ""Chayka"""
115,isangel,VU,-19.55,169.27,Tanna Ikamir Bungalows and Accommodation
116,nizhniy tsasuchey,RU,45.39,39.24,
117,norman wells,US,35.22,-97.44,Courtyard by Marriott Norman
118,lavrentiya,RU,65.58,-171.0,
119,anton lizardo,PA,8.4,-80.27,Hostal Las Catalinas Anton Panama
120,rio grande,GR,38.3,21.78,Airotel Achaia Beach
121,nome,US,64.5,-165.41,Aurora Inn & Suites
122,namatanai,PG,-3.67,152.43,Namatanai Hotel
123,fortuna,US,40.6,-124.16,Best Western Country Inn
124,havre-saint-pierre,CA,50.23,-63.6,Hotel Du Havre
125,orange cove,US,33.7,-117.77,DoubleTree by Hilton Hotel Irvine - Spectrum
126,avarua,CK,-21.21,-159.78,The Edgewater Resort and Spa
127,tamiahua,MX,21.27,-97.45,Mission Of The Sun Hotel
128,nikolskoye,RU,59.7,30.79,
129,paamiut,GL,61.99,-49.67,Yeet Hotel
130,kapaa,US,22.08,-159.32,Sheraton Kauai Resort at Coconut Beach
131,natal,BR,-5.79,-35.21,Yak Beach Hotel
132,qandala,SO,11.47,49.87,
133,mogzon,RU,51.74,111.96,
134,teguise,ES,29.06,-13.56,HOTEL BOUTIQUE PALACIO ICO
135,alyangula,AU,-13.85,136.42,Groote Eylandt Lodge
136,port blair,CD,-7.03,29.76,
137,georgetown,MY,5.41,100.34,"Eastern & Oriental Hotel, Penang"
138,deputatskiy,RU,69.3,139.9,
139,vardo,NO,70.37,31.11,Meieriet Restaurant
140,menongue,AO,-14.66,17.69,Ritz Lauca
141,urdoma,RU,61.75,48.54,Belkin House
142,paita,PE,-5.09,-81.11,Hotel Náutico de Paita
143,san cristobal,ML,13.3,-4.9,Hôtel Teriya
144,kuito,AO,-12.38,16.93,iu Hotel Kuíto
145,maroantsetra,MG,-15.43,49.73,Hotel l'Hippocampe
146,hellevoetsluis,NL,51.83,4.13,Cape Helius Beach Hotel
147,cidreira,BR,-30.18,-50.21,Pond Country Club
148,mushie,CD,-3.02,16.9,
149,husavik,IS,66.04,-17.34,Arbol
150,hailar,CN,49.2,119.7,Hulunbeir Hotel
151,tuktoyaktuk,CA,69.45,-133.04,Hunter's B&B
152,abu dhabi,IN,24.6,72.7,Hotel Hillock
153,komsomolskiy,UZ,40.43,71.72,Hotel Mehmon Saroy
154,lompoc,US,34.64,-120.46,Embassy Suites by Hilton Lompoc Central Coast
155,tasiilaq,GL,65.61,-37.64,Hotel Angmagssalik
156,shenjiamen,CN,29.96,122.3,Hilton Zhoushan
157,olivenza,ES,38.68,-7.1,Hotel Los Amigos
158,taltal,CL,-25.4,-70.48,HOTEL PLAZA
159,cobija,BO,-11.03,-68.77,Brasiléia Palace Hotel
160,tlapehuala,MX,18.22,-100.52,
161,iqaluit,CA,63.75,-68.51,Frobisher Inn
162,barreirinhas,BR,-2.75,-42.83,Porto Preguiças Resort
163,orebro,SE,59.27,15.21,Elite Stora Hotellet Örebro
164,koga,JP,33.73,130.47,
165,geraldton,AU,-28.77,114.6,Ocean Centre Hotel
166,tiznit,MA,29.58,-9.5,
167,olinda,BR,-8.01,-34.86,Hotel Costeiro Olinda
168,tuatapere,NZ,-46.13,167.68,Waiau Hotel
169,gorele,TR,41.03,39.0,
170,half moon bay,LR,6.38,-10.7,Modern Hotel
171,faya,SA,18.39,42.45,
172,hambantota,LK,6.12,81.12,Jade Green Hotel Hambantota
173,sechura,PE,-5.56,-80.82,Hotel Amanecer - Sechura
174,ancud,CL,-41.87,-73.82,Panamericana Hotel Ancud
175,kaitangata,NZ,-46.28,169.85,
176,saldanha,ZA,-33.01,17.94,Blue Bay Lodge
177,havelock,US,34.88,-76.9,Holiday Inn Express and Suites Havelock
178,alice springs,US,27.75,-98.07,Hampton Inn Alice
179,fukue,JP,32.69,128.84,SERENDIP HOTEL GOTO
180,pochutla,MX,15.74,-96.47,Hotel Alebrijes
181,pimentel,PE,-6.84,-79.93,Hotel Puerto del Sol
182,liwale,TZ,-9.77,37.93,Samoma Lodge
183,kuala krai,ID,3.38,98.62,
184,southbridge,US,42.08,-72.03,Hampton Inn Sturbridge
185,kungurtug,RU,50.6,97.52,
186,saint-pierre,RE,-21.34,55.48,"Villa Delisle, Hotel & Spa"
187,yurginskoye,RU,56.82,67.39,
188,ponta do sol,PT,38.73,-28.27,Casa dos Lagos - AL
189,inhambane,MZ,-23.86,35.38,Sentidos Beach Retreat
190,baykit,RU,61.67,96.37,
191,praia,CV,14.92,-23.51,Hotel VIP Praia
192,marang,MY,5.21,103.21,Che Beach House
193,port lincoln,CD,-7.03,29.76,
194,tura,IN,25.52,90.22,Hotel Polo Orchid
195,burnie,AU,-41.07,145.92,Ikon Hotel
196,salinopolis,BR,-0.61,-47.36,Hotel Concha do Mar
197,nizhnyaya omka,RU,63.47,41.61,
198,sibolga,ID,1.74,98.78,Prima Indah Hotel
199,karpathos,GR,35.51,27.21,Onar Beach Houses - Karpathos
200,joshimath,IN,30.57,79.57,Blue Poppy Resorts
201,marathon,US,44.9,-89.77,
202,rundu,,-17.93,19.77,Hakusembe River Lodge
203,chokurdakh,RU,70.63,147.92,
204,labuhan,ID,-6.88,112.21,
205,kahului,US,20.89,-156.47,Maui Beach Hotel
206,nanortalik,GL,60.14,-45.24,Hotel Kap Farvel
207,ous,RU,60.91,61.52,
208,honningsvag,NO,70.98,25.97,Arctic Hotel Nordkapp
209,tuy hoa,PH,14.02,120.73,
210,surt,LY,31.21,16.59,Salam Hotel
211,shakawe,BW,-18.37,21.85,Athoma Guest House
212,tikhvin,RU,59.65,33.53,"Gostinitsa ""Staryy Dom"""
213,beringovskiy,RU,63.05,179.32,
214,talnakh,RU,69.49,88.4,Talnakh Hotel
215,kulhudhuffushi,MV,6.62,73.07,Hondaafushi Island Resort
216,east london,IS,65.0,-15.0,Hengifoss Guesthouse
217,fairbanks,US,64.84,-147.72,SpringHill Suites by Marriott Fairbanks
218,yambio,SS,4.57,28.4,Naivasha Hotel
219,salalah,OM,17.02,54.09,Salalah Gardens Hotel
220,arman,RU,59.7,150.17,
221,berlevag,NO,70.86,29.09,Berlevåg camping & Appartement AS
222,airai,TL,-8.93,125.41,
223,salekhard,RU,66.53,66.6,Hotel Arktika
224,bunia,CD,1.57,30.25,Hotel Karibuni
225,grand river south east,US,38.88,-109.5,
226,mys shmidta,RU,62.06,48.62,
227,nouadhibou,MR,20.93,-17.03,Hôtel Sahel
228,heihe,CN,50.24,127.49,Steigenberger Hotel Jinjiang Heihe
229,whitianga,NZ,-36.83,175.7,Pipi Dune Bed & Breakfast
230,rajmahal,IN,25.05,87.83,Barman Hotel And Restaurants Nayabazar Rajmaha Sahibganj
231,juneau,US,58.3,-134.42,"Baranof Downtown, BW Signature Collection"
232,mount gambier,GB,53.66,-1.85,Waterfront Lodge Hotel & Prego Restaurant
233,jacqueville,CI,5.21,-4.41,Dream hotel
234,riviere-au-renard,CA,49.0,-64.4,Gîte du Renard
235,chuy,UY,-33.7,-53.46,Bertelli Chuí Hotel
236,seshcha,RU,53.74,33.34,
237,ravar,IR,31.27,56.81,Hotel sperlous
238,vanimo,PG,-2.67,141.3,Sandaun Surf Hotel
239,moerai,PF,-22.43,-151.33,Le Manotel
240,songea,TZ,-10.68,35.65,Nkosi Zwangendaba Hotel
241,anstruther,GB,56.22,-2.7,The Waterfront
242,maripi,CO,5.55,-74.01,
243,ambon,ID,-3.7,128.18,Orchid Hotel
244,constitucion,CL,-35.33,-72.42,Resort Vista Hermosa (VH)
245,namibe,AO,-15.2,12.15,Hotel ibis Styles Iu Namibe
246,guerrero negro,MX,17.67,-100.0,
247,chicama,PE,-7.84,-79.15,Balihai Bungalows
248,okhotsk,RU,59.38,143.3,
249,poum,NC,-20.23,164.02,
250,tiksi,RU,71.69,128.87,Arktika
251,mount isa,GB,53.66,-1.85,Pennine Manor
252,odesskoye,RU,54.21,72.97,
253,leningradskiy,RU,69.38,178.42,
254,ostrovnoy,RU,68.05,39.51,
255,aswan,EG,24.09,32.91,Hotel Sofitel Legend Old Cataract Aswan
256,lensk,RU,60.73,114.93,Mini-hotel Uyut
257,totness,SR,5.88,-56.32,STAATS LOGEERGEBOUW TOTNESS
258,soure,BR,-0.72,-48.52,Pousada Canto Do Francês
259,port elizabeth,CD,-7.03,29.76,
260,mar del plata,ES,43.4,-4.01,Hotel Playa de Los Locos
261,bonthe,SL,7.53,-12.51,Bonthe Holiday Village
262,marsa matruh,MT,35.88,14.5,Preluna
263,mazatlan,MX,23.22,-106.42,Hotel Emporio Mazatlán
264,hofn,IS,64.25,-15.21,Milk Factory
265,mayumba,GA,-3.43,10.66,Hotel Mayeye Foutou
266,ola,RU,59.58,151.28,
267,tacoronte,ES,28.48,-16.41,Hotel Las Cañadas
268,rehoboth,,-23.32,17.08,Ochsenwagen Hotel Pension
269,chinsali,ZM,-10.54,32.08,Nkakula Guest House
270,clinton,US,42.59,-82.92,Holiday Inn Express & Suites Chesterfield - Selfridge Area
271,dromolaxia,CY,34.88,33.59,Sun Hall Hotel
272,ramsar,IR,36.92,50.64,Ramsar Parsian Hotel
273,caravelas,BR,-17.71,-39.25,Pousada Liberdade
274,vila velha,PT,42.03,-8.16,Hotel Castrum Villae
275,narsaq,GL,60.92,-46.05,Hotel Narsaq
276,wilmington,US,34.23,-77.94,"Hotel Ballast Wilmington, Tapestry Collection by Hilton"
277,jieshi,CN,22.81,115.83,维也纳酒店
278,novaya zaimka,RU,55.92,38.33,Guest House Sosnovaya Alleya
279,hobyo,SO,5.35,48.53,
280,matara,LK,5.95,80.54,ParrotFish Bay
281,lima,PE,-12.04,-77.03,Hotel España
282,astara,AZ,38.5,48.67,
283,alta floresta,NO,69.97,23.27,Scandic Alta
284,belmonte,BR,-15.86,-38.88,Pousada Rio
285,udachnyy,RU,66.42,112.4,
286,luderitz,,-26.65,15.16,Kairos Cottage
287,krasnoselkup,RU,65.7,82.47,Gostinitsa Krasnosel'kup
288,gouyave,GD,12.16,-61.73,Mount Edgecombe Plantation
289,santa fe,PH,17.49,120.43,Monte Leah Beach Resort
290,paragominas,BR,-2.97,-47.48,
291,halifax,CA,44.65,-63.57,Halifax Marriott Harbourfront Hotel
292,moctezuma,MX,29.8,-109.67,Hotel San Antonio
293,montemor-o-novo,PT,38.65,-8.21,L'and Vineyards
294,uusikaupunki,FI,60.8,21.41,Hotel Aquarius
295,lakes entrance,US,61.61,-149.31,Grand View Inn & Suites
296,kumano,JP,34.34,132.59,
297,vao,NC,-22.67,167.48,OURE TERA beach resort
298,richards bay,US,46.84,-95.91,Americas Best Value Inn & Suites - Detroit Lakes MN
299,edd,ER,13.93,41.69,
300,genhe,CN,50.78,121.52,Blueberry Town Theme Hotel
301,san pedro,ML,13.3,-4.9,Hôtel Teriya
302,asau,RO,46.43,26.4,Pensiunea Sophia
303,prince rupert,CA,52.97,-108.38,
304,hami,CN,42.8,93.45,哈密环球大酒店
305,kendari,ID,-3.94,122.5,Claro Hotel Kendari
306,chatrapur,IN,19.35,84.98,
307,hamilton,US,39.18,-84.53,Hampton Inn & Suites Cincinnati/Uptown-University Area
308,abu samrah,IN,24.6,72.7,Hotel Hillock
309,garowe,SO,8.41,48.48,Curubo Hotel
310,andenes,NO,69.31,16.12,Grønnbuene Rorbu Hotel
311,vila franca do campo,PT,42.03,-8.16,Hotel Castrum Villae
312,angouleme,FR,45.65,0.15,ibis Angoulême Nord
313,coquimbo,CL,-29.95,-71.34,Apart Hotel La Fuente
314,boone,US,39.03,-92.33,
315,kitgum,UG,3.28,32.89,Cactus
316,makat,KZ,47.65,53.35,Gostinitsa Daulet
317,college,US,64.86,-147.8,Pike's Waterfront Lodge
318,chuzhou,CN,32.32,118.3,Ibis Chuzhou 1912
319,aksu,CN,41.12,80.26,Pudong Holiday Hotel
320,avera,US,33.19,-82.53,
321,ayagoz,KZ,47.97,80.44,Zhas-Nur
322,ambilobe,MG,-13.2,49.05,Hotel National
323,singaraja,ID,-8.11,115.09,Bali Taman Beach Resort and Spa-Lovina
324,touros,BR,-5.2,-35.46,Pousada Amigos do Vento
325,karratha,AU,-20.74,116.85,Karratha International Hotel
326,sohbatpur,PK,28.52,68.54,Kattah Hotel
327,valverde del camino,IT,37.58,15.12,Four Points by Sheraton Catania Hotel & Conference Center
328,skerries,IE,53.58,-6.11,The Redbank Guesthouse
329,ambovombe,MG,-25.17,46.08,Hotel Le Source
330,banepa,NP,27.63,85.52,The Dwarika's Resort
331,carutapera,BR,-1.2,-46.02,HOTEL R. SOARES
332,beni suef,CD,0.5,29.47,Albertine Hotel
333,yar-sale,RU,66.83,70.83,"Hotel ""Nord House"""
334,sompeta,IN,18.93,84.6,
335,nyurba,RU,63.28,118.33,Gostinitsa Alrosa
336,awjilah,LY,29.11,21.29,
337,cockburn town,AU,-32.08,141.0,Coburn Hotel
338,tripoli,LY,32.88,13.19,Radisson Blu Al Mahary Hotel
339,kilindoni,TZ,-7.91,39.67,Afro Beach Bungalows Mafia
340,belaya gora,UA,49.03,25.77,Hetman
341,marhaura,IN,25.97,84.87,
342,tchollire,CM,8.4,14.17,
343,vostok,RU,46.49,135.88,
344,catio,GW,11.28,-15.25,
345,eydhafushi,MV,5.1,73.07,Soneva Fushi
346,nkoteng,CM,4.52,12.03,Sanaga Beach Lodges
347,zaysan,KZ,47.47,84.87,Rahat Hotel
348,bousso,TD,10.48,16.71,
349,inverness,GB,57.48,-4.22,Loch Ness Country House Hotel
350,shibetsu,JP,43.66,145.13,Hotel Kawabata Shibetsu
351,san quintin,ML,13.3,-4.9,Hôtel Teriya
352,olafsvik,IS,64.89,-23.71,Hotel Olafsvik
353,kharp,RU,66.8,65.81,"Hotel ""Sob"""
354,mudon,MM,16.26,97.72,
355,boyolangu,ID,-8.12,111.89,Crown Victoria Hotel
356,saint-augustin,CA,51.23,-58.65,
357,arlit,NE,18.74,7.39,
358,taoudenni,ML,22.68,-3.98,
359,zapolyarnyy,RU,69.42,30.81,Pechenga
360,danane,CI,7.26,-8.15,Hotel Paloma
361,sambava,MG,-14.27,50.17,Carrefour
362,naze,JP,28.37,129.48,Hotel New Amami
363,rocky mountain house,US,35.16,-99.06,
364,axim,GH,4.87,-2.24,Axim Beach Hotel
365,lircay,PE,-12.99,-74.72,hospedaje centro
366,kiunga,PG,-6.12,141.29,Cassowary Hotel
367,torbay,CA,47.67,-52.73,
368,miracema do tocantins,BR,-21.41,-42.2,Novo Hotel Varandas
369,tazovskiy,RU,67.47,78.7,Hotel Tazovchanka
370,mweka,CD,-4.85,21.57,
371,redmond,US,47.67,-122.12,Hyatt House Seattle/Redmond
372,longkou,CN,37.65,120.33,Runhui Hotel
373,mafeteng,LS,-29.82,27.24,
374,najran,SA,17.49,44.13,
375,griffith,US,41.53,-87.42,Best Western Crossroads Inn
376,virginia beach,US,37.55,-77.45,Hilton Richmond Downtown
377,sedona,US,34.87,-111.76,Sedona Rouge Hotel and Spa Trademark Collection by Wyndham
378,dingle,PH,11.0,122.67,
379,pinyug,RU,60.25,47.78,
380,sikonge,TZ,-5.63,32.77,Harmony Palace Lodge
381,naryan-mar,RU,67.67,53.09,Hostel Agat
382,smrzovka,CZ,50.74,15.25,Hotel Bon
383,jardim,BR,-21.48,-56.14,Vitória Hotel
384,bandarbeyla,SO,9.49,50.81,
385,port macquarie,CD,-7.03,29.76,
386,linxia,CN,35.6,103.21,Baohan Hotel
387,gamba,GA,-2.65,10.0,
388,trincomalee,LK,8.57,81.23,Alfresco Beach Hotel
389,verkhnevilyuysk,RU,63.45,120.32,Gostinitsa Mila
390,sisimiut,GL,66.94,-53.67,Hotel Sisimiut
391,south sioux city,IS,64.0,-19.0,
392,liverpool,GB,53.41,-2.98,Hard Days Night Hotel
393,churapcha,RU,62.0,132.43,
394,ust-kuyga,RU,70.02,135.6,
395,roma,US,43.21,-75.46,Wingate By Wyndham Rome
396,tignere,CM,7.37,12.65,Hotel Famanou
397,haines junction,US,59.23,-135.44,Aspen Suites Hotel Haines
398,villamontes,BO,-21.25,-63.5,Hotel El Rancho
399,santa isabel,PH,17.49,120.43,Monte Leah Beach Resort
400,boca do acre,IT,45.68,8.41,Il Gobbo
401,bubaque,GW,11.28,-15.83,Ponta Anchaca
402,kenai,US,60.55,-151.26,Kenai Airport Hotel
403,mama,RU,58.31,112.9,
404,srednekolymsk,RU,67.45,153.68,
405,akureyri,IS,65.68,-18.09,Hotel Akureyri
406,aginskoye,RU,51.1,114.53,Gostinitsa Gobi
407,kailua,US,21.4,-157.74,
408,lorengau,PG,-2.02,147.27,Seeadler Bay Hotel
409,hohhot,CN,40.81,111.65,"Shangri-La Hotel, Hohhot"
410,hualmay,PE,-11.1,-77.61,La Posada De Santa Maria
411,ayan,RU,56.45,138.17,
412,lagoa,PT,39.05,-27.98,Hotel Ilha Graciosa
413,ruidoso,US,33.33,-105.67,MCM Elegante Lodge & Resort
414,zhenhai,CN,24.26,118.09,
415,saurimo,AO,-9.66,20.39,iu Hotel Saurimo Rotunda
416,nizwa,OM,22.93,57.53,Al Diyar Hotel
417,talcahuano,CL,-36.72,-73.12,Hotel Terrasur
418,porto novo,PT,41.15,-8.61,The Yeatman Hotel
419,high level,US,33.61,-95.75,
420,tooele,US,40.53,-112.3,Holiday Inn Express & Suites Tooele
421,robore,BO,-18.33,-59.75,Hotel La Casona De Don Pepe
422,pangnirtung,CA,66.15,-65.71,Auyuittuq Lodge (Inns North)
423,kyaukse,MM,21.6,96.13,Hotel Kyaukse
424,moose factory,US,43.66,-110.72,
425,luwuk,ID,-0.95,122.79,Swiss-Belinn Hotel Luwuk
426,caborca,MX,30.58,-111.1,Motel Elba
427,viedma,AR,-40.81,-63.0,Hotel Austral Viedma
428,bayan,CN,46.08,127.4,Longfucheng Hotel
429,ziarat,PK,30.38,67.73,Ziarat Hotel Ziarat
430,sumbe,AO,-11.21,13.84,iu Hotel Sumbe
431,ust-omchug,RU,61.15,149.63,
432,bedford,GB,52.13,-0.47,Holiday Inn Express Bedford
433,panama city,PA,9.0,-80.0,
434,amapa,BR,1.0,-52.0,
435,atasu,KZ,48.68,71.64,
436,keetmanshoop,,-26.58,18.13,Quiver Inn Guesthouse
437,trapani,IT,37.83,12.67,
438,ostroleka,PL,53.09,21.58,Zajazd HUBUS
439,alekseyevsk,RU,57.84,108.35,
440,irtyshskiy,RU,58.33,68.13,
441,brownsville,US,25.9,-97.5,Hotel Colonial
442,san policarpo,ML,13.3,-4.9,Hôtel Teriya
443,durg,IN,21.18,81.28,The Roman Park - Best Wedding Destination Hotel
444,nelson bay,NZ,-41.28,173.28,Trailways Hotel
445,agdam,AZ,39.99,46.93,
446,bull savanna,LR,6.2,-10.28,
447,waipawa,NZ,-41.41,175.52,
448,panalingaan,PH,8.78,117.42,
449,kittery,US,43.09,-70.74,"Wentworth by the Sea, A Marriott Hotel & Spa"
450,senador jose porfirio,HT,18.82,-71.9,Piscine Oasis
451,mnogovershinnyy,RU,53.94,139.92,Gostinitsa
452,toora-khem,RU,52.47,96.11,
453,pabrade,LT,55.0,25.78,Pavovere 2
454,tokonou,GN,9.65,-9.78,Tokonou
455,ossora,RU,59.24,163.07,Ossora
456,pangai,TO,-19.8,-174.35,Ha'apai Beach Resort
457,baruun-urt,MN,46.68,113.28,Orgin Hotel
458,ternate,ID,0.8,127.4,Hotel Emerald
459,emborion,GR,40.48,21.55,Κτήμα Γιαννιώτη (Βλάστη Κοζάνης)
460,pasighat,IN,28.07,95.33,OYO 44691 Hotel East
461,maromitsa,RU,59.87,48.01,
462,petropavlovsk-kamchatskiy,RU,53.05,158.65,Hotel Comfort
463,huilong,CN,31.81,121.66,Hilton Garden Inn Qidong
464,banihal,IN,33.42,75.2,JKTDC
465,royan,FR,45.63,-1.03,Hôtel Miramar
466,suntar,RU,62.14,117.63,
467,mankera,PK,31.39,71.44,
468,inongo,CD,-1.95,18.27,Hotel Du Lac
469,kloulklubed,PW,7.04,134.26,The Adventures Inn-Peleliu
470,wattegama,LK,6.8,81.48,
471,xuddur,SO,4.12,43.89,Hotel Kontome 2
472,mahon,ES,39.89,4.27,Hotel Catalonia Mirador des Port
473,marzuq,YE,14.4,46.47,
474,shahrud,IR,36.42,54.98,Shahroud Tourist Hotel
475,anito,PH,12.45,125.29,The Yellow House
476,khatanga,RU,71.97,102.5,"Gostinitsa ""Zapolyar'ye"""
477,mildura,AU,-34.2,142.15,Quality Hotel Mildura Grand
478,sanary-sur-mer,FR,43.12,5.8,Hôtel Plein Large
479,kieta,PG,-6.22,155.63,
480,karaton,ID,-6.34,106.1,OYO 3173 Wisma Pkp-ri
481,basoko,CD,1.24,23.62,Flat Hotel La Benediction
482,chernyshevskiy,RU,63.01,112.47,
483,flinders,AU,-34.58,150.86,Lakeview Hotel Motel
484,skjervoy,NO,70.03,20.97,Hotel Maritim Skjervøy AS
485,ponta delgada,PT,38.73,-28.27,Blue Planet São Jorge Azores AL
486,rexburg,US,43.83,-111.79,Hampton Inn & Suites Rexburg
487,porto velho,PT,41.15,-8.61,The Yeatman Hotel
488,russell,US,32.35,-85.2,
489,obo,CF,5.4,26.49,
490,korla,CN,41.76,86.15,Kangcheng Jian Guo International Hotel
491,gorodishche,RU,48.8,44.47,Hotel Elite
492,miracatu,BR,-24.28,-47.46,Hotel Ubirajara
493,daru,PG,-9.08,143.21,Daru hotel
494,ankazoabo,MG,-22.28,44.52,
495,zhigansk,RU,66.77,123.37,
496,traiguen,CL,-38.25,-72.68,Hospedaje Sonnia
497,sorland,NO,67.67,12.69,Lofoten Værøy Brygge
498,kazerun,IR,29.62,51.65,Bishapour Hotel
499,serenje,ZM,-13.23,30.24,Villa Mbanandi Lodge
500,londonderry,GB,55.0,-7.31,The Waterfoot Hotel
501,clarence town,US,42.98,-78.59,Clarence Inn extended stay
502,bertoua,CM,4.58,13.68,Hotel Massoh
503,seymchan,RU,62.88,152.43,
504,hannibal,US,39.71,-91.36,Garth Woodside Mansion
505,kirakira,SB,-10.45,161.92,
506,tipperary,IE,52.47,-8.16,Great National Ballykisteen Golf Hotel
507,alexandria,EG,31.22,29.96,"Four Seasons Hotel Alexandria at San Stefano, Egypt"
508,mareeba,AU,-17.0,145.43,Taj on Byrnes Mareeba Luxury Accommodation
509,jumla,NP,29.27,82.18,Hotel Kanjirowa
510,tilichiki,RU,60.47,166.1,
511,vilhena,BR,-12.74,-60.15,Hotel Mirage
512,chancay,PE,-11.57,-77.27,"Hospedaje ""Los Cuchimilcos"""
513,klaksvik,FO,62.23,-6.59,Hotel Klaksvík
514,blythe,US,33.61,-114.6,Hampton Inn & Suites Blythe
515,ahome,MX,25.92,-109.18,
516,sur,OM,22.57,59.53,Resort Sur Beach Holiday منتجع شاطئ صور هوليداي
517,monroe,US,43.15,-77.68,"Country Inn & Suites by Radisson, Rochester-University Area, NY"
518,boa vista,CM,4.43,8.97,
519,rodrigues alves,MU,-19.7,63.42,Cocotiers Hotel - Rodrigues
520,buala,SB,-8.14,159.59,Maringe Lagoon Lodge
521,formoso do araguaia,BR,-14.95,-46.23,Hotel California
522,payakumbuh,ID,-0.22,100.63,Dalimo Homestay
523,ahipara,NZ,-35.17,173.17,Ahipara Bay Motel
524,port hardy,CD,-7.03,29.76,
525,gravdal,NO,68.12,13.5,Scandic Leknes Lofoten Hotel
526,puerto varas,ES,36.59,-6.23,Hotel Bodega Real
527,miramar,US,25.99,-80.23,Quality Inn & Suites Hollywood Boulevard Port Everglades Cruise Port Hotel
528,jinchang,CN,38.5,102.17,Jinchang Hotel
529,kalabagh,PK,32.97,71.56,Al-Haram hotel Kalabagh
530,ukhta,RU,63.57,53.68,Gostinitsa Yevropeyskaya
531,kutum,SD,14.2,24.67,
532,barguzin,RU,53.62,109.62,"Gostevoy Dom S.barguzin ""Vizit"""
533,gondar,ET,12.6,37.47,Haile Resort Gondar
534,magadi,IN,12.97,77.23,
